[Satellite]
VERSION=1.1
NAME=SL-6 R/B(2)
NICKNAME=SL-6 R/B(2)
TLE1=1 20666U 90055D   15055.35367849  .00001631  00000-0  17301-3 0  9996
TLE2=2 20666  62.7863  83.1383 0088545  21.8006 338.6817 14.90498332335322
